[
    {
        "Altitude(m)": 624790.7945601554,
        "Argument of Periapsis(deg)": 0.0,
        "Eccentricity": 0.0,
        "Inclination(deg)": 60.0,
        "Latitude(deg)": -59.147114069542916,
        "Longitude(deg)": 171.03444961428377,
        "Mean Anomaly(deg)": -81.8182,
        "RAAN(deg)": 345.0,
        "Satellite Name": "Test1 1535",
        "Satellite Number": 1535,
        "Semi-Major Axis(m)": 6980739.136638005,
        "Time(s)": 0
    },
    {
        "Altitude(m)": 624737.450233821,
        "Argument of Periapsis(deg)": 0.00010418945913296404,
        "Eccentricity": 0.0,
        "Inclination(deg)": 60.0,
        "Latitude(deg)": -58.994571044450744,
        "Longitude(deg)": 172.153952571391,
        "Mean Anomaly(deg)": -81.19809385453816,
        "RAAN(deg)": 344.99957995086027,
        "Satellite Name": "Test1 1535",
        "Satellite Number": 1535,
        "Semi-Major Axis(m)": 6980739.136638005,
        "Time(s)": 10
    },
    {
        "Altitude(m)": 624680.3223134418,
        "Argument of Periapsis(deg)": 0.0002083789182659281,
        "Eccentricity": 0.0,
        "Inclination(deg)": 60.0,
        "Latitude(deg)": -58.83171640624346,
        "Longitude(deg)": 173.26290326299977,
        "Mean Anomaly(deg)": -80.5779877090763,
        "RAAN(deg)": 344.99915990172053,
        "Satellite Name": "Test1 1535",
        "Satellite Number": 1535,
        "Semi-Major Axis(m)": 6980739.136638005,
        "Time(s)": 20
    },
    {
        "Altitude(m)": 624619.4332641303,
        "Argument of Periapsis(deg)": 0.00031256837739889213,
        "Eccentricity": 0.0,
        "Inclination(deg)": 60.0,
        "Latitude(deg)": -58.658710790046094,
        "Longitude(deg)": 174.3607936086176,
        "Mean Anomaly(deg)": -79.9578815636145,
        "RAAN(deg)": 344.9987398525808,
        "Satellite Name": "Test1 1535",
        "Satellite Number": 1535,
        "Semi-Major Axis(m)": 6980739.136638005,
        "Time(s)": 30
    },
    {
        "Altitude(m)": 624554.8070280829,
        "Argument of Periapsis(deg)": 0.0004167578365318562,
        "Eccentricity": 0.0,
        "Inclination(deg)": 60.0,
        "Latitude(deg)": -58.47572121558837,
        "Longitude(deg)": 175.44715563064503,
        "Mean Anomaly(deg)": -79.33777541815265,
        "RAAN(deg)": 344.99831980344106,
        "Satellite Name": "Test1 1535",
        "Satellite Number": 1535,
        "Semi-Major Axis(m)": 6980739.136638005,
        "Time(s)": 40
    },
    {
        "Altitude(m)": 624486.4690144726,
        "Argument of Periapsis(deg)": 0.0005209472956648203,
        "Eccentricity": 0.0,
        "Inclination(deg)": 60.0,
        "Latitude(deg)": -58.28292038462435,
        "Longitude(deg)": 176.52156069170596,
        "Mean Anomaly(deg)": -78.71766927269078,
        "RAAN(deg)": 344.9978997543013,
        "Satellite Name": "Test1 1535",
        "Satellite Number": 1535,
        "Semi-Major Axis(m)": 6980739.136638005,
        "Time(s)": 50
    },
    {
        "Altitude(m)": 624414.4460887358,
        "Argument of Periapsis(deg)": 0.0006251367547977843,
        "Eccentricity": 0.0,
        "Inclination(deg)": 60.0,
        "Latitude(deg)": -58.080485984315516,
        "Longitude(deg)": 177.58361996038423,
        "Mean Anomaly(deg)": -78.09756312722905,
        "RAAN(deg)": 344.99747970516154,
        "Satellite Name": "Test1 1535",
        "Satellite Number": 1535,
        "Semi-Major Axis(m)": 6980739.136638005,
        "Time(s)": 60
    },
    {
        "Altitude(m)": 624338.7665612295,
        "Argument of Periapsis(deg)": 0.0007293262139307483,
        "Eccentricity": 0.0,
        "Inclination(deg)": 60.0,
        "Latitude(deg)": -57.868600001843134,
        "Longitude(deg)": 178.63298461202382,
        "Mean Anomaly(deg)": -77.47745698176715,
        "RAAN(deg)": 344.99705965602186,
        "Satellite Name": "Test1 1535",
        "Satellite Number": 1535,
        "Semi-Major Axis(m)": 6980739.136638005,
        "Time(s)": 70
    },
    {
        "Altitude(m)": 624259.4601752834,
        "Argument of Periapsis(deg)": 0.0008335156730637124,
        "Eccentricity": 0.0,
        "Inclination(deg)": 60.0,
        "Latitude(deg)": -57.64744805499534,
        "Longitude(deg)": 179.66934427337432,
        "Mean Anomaly(deg)": -76.85735083630539,
        "RAAN(deg)": 344.99663960688207,
        "Satellite Name": "Test1 1535",
        "Satellite Number": 1535,
        "Semi-Major Axis(m)": 6980739.136638005,
        "Time(s)": 80
    },
    {
        "Altitude(m)": 624176.5580946441,
        "Argument of Periapsis(deg)": 0.0009377051321966765,
        "Eccentricity": 0.0,
        "Inclination(deg)": 60.0,
        "Latitude(deg)": -57.41721874292899,
        "Longitude(deg)": -179.3075732399727,
        "Mean Anomaly(deg)": -76.23724469084353,
        "RAAN(deg)": 344.99621955774234,
        "Satellite Name": "Test1 1535",
        "Satellite Number": 1535,
        "Semi-Major Axis(m)": 6980739.136638005,
        "Time(s)": 90
    },
    {
        "Altitude(m)": 624090.0928903013,
        "Argument of Periapsis(deg)": 0.0010418945913296407,
        "Eccentricity": 0.0,
        "Inclination(deg)": 60.0,
        "Latitude(deg)": -57.17810302073494,
        "Longitude(deg)": -178.29800238206855,
        "Mean Anomaly(deg)": -75.61713854538168,
        "RAAN(deg)": 344.9957995086026,
        "Satellite Name": "Test1 1535",
        "Satellite Number": 1535,
        "Semi-Major Axis(m)": 6980739.136638005,
        "Time(s)": 100
    },
    {
        "Altitude(m)": 624000.0985267208,
        "Argument of Periapsis(deg)": 0.0011460840504626045,
        "Eccentricity": 0.0,
        "Inclination(deg)": 60.0,
        "Latitude(deg)": -56.93029360086416,
        "Longitude(deg)": -177.30214201927404,
        "Mean Anomaly(deg)": -74.99703239991987,
        "RAAN(deg)": 344.99537945946287,
        "Satellite Name": "Test1 1535",
        "Satellite Number": 1535,
        "Semi-Major Axis(m)": 6980739.136638005,
        "Time(s)": 110
    },
    {
        "Altitude(m)": 623906.6103474769,
        "Argument of Periapsis(deg)": 0.0012502735095955685,
        "Eccentricity": 0.0,
        "Inclination(deg)": 60.0,
        "Latitude(deg)": -56.67398438392253,
        "Longitude(deg)": -176.32015620678666,
        "Mean Anomaly(deg)": -74.37692625445803,
        "RAAN(deg)": 344.99495941032313,
        "Satellite Name": "Test1 1535",
        "Satellite Number": 1535,
        "Semi-Major Axis(m)": 6980739.136638005,
        "Time(s)": 120
    },
    {
        "Altitude(m)": 623809.6650603137,
        "Argument of Periapsis(deg)": 0.0013544629687285324,
        "Eccentricity": 0.0,
        "Inclination(deg)": 60.0,
        "Latitude(deg)": -56.409369920793445,
        "Longitude(deg)": -175.35217508777635,
        "Mean Anomaly(deg)": -73.75682010899627,
        "RAAN(deg)": 344.99453936118334,
        "Satellite Name": "Test1 1535",
        "Satellite Number": 1535,
        "Semi-Major Axis(m)": 6980739.136638005,
        "Time(s)": 130
    },
    {
        "Altitude(m)": 623709.3007215834,
        "Argument of Periapsis(deg)": 0.0014586524278614966,
        "Eccentricity": 0.0,
        "Inclination(deg)": 60.0,
        "Latitude(deg)": -56.13664490753381,
        "Longitude(deg)": -174.39829740468957,
        "Mean Anomaly(deg)": -73.13671396353442,
        "RAAN(deg)": 344.9941193120436,
        "Satellite Name": "Test1 1535",
        "Satellite Number": 1535,
        "Semi-Major Axis(m)": 6980739.136638005,
        "Time(s)": 140
    },
    {
        "Altitude(m)": 623605.556720136,
        "Argument of Periapsis(deg)": 0.0015628418869944607,
        "Eccentricity": 0.0,
        "Inclination(deg)": 60.0,
        "Latitude(deg)": -55.856003714018776,
        "Longitude(deg)": -173.45859157477418,
        "Mean Anomaly(deg)": -72.51660781807261,
        "RAAN(deg)": 344.99369926290393,
        "Satellite Name": "Test1 1535",
        "Satellite Number": 1535,
        "Semi-Major Axis(m)": 6980739.136638005,
        "Time(s)": 150
    },
    {
        "Altitude(m)": 623498.4737606362,
        "Argument of Periapsis(deg)": 0.0016670313461274247,
        "Eccentricity": 0.0,
        "Inclination(deg)": 60.0,
        "Latitude(deg)": -55.56763994686087,
        "Longitude(deg)": -172.5330968218358,
        "Mean Anomaly(deg)": -71.89650167261077,
        "RAAN(deg)": 344.99327921376414,
        "Satellite Name": "Test1 1535",
        "Satellite Number": 1535,
        "Semi-Major Axis(m)": 6980739.136638005,
        "Time(s)": 160
    },
    {
        "Altitude(m)": 623388.0938462854,
        "Argument of Periapsis(deg)": 0.0017712208052603888,
        "Eccentricity": 0.0,
        "Inclination(deg)": 60.0,
        "Latitude(deg)": -55.27174604673048,
        "Longitude(deg)": -171.62182585776625,
        "Mean Anomaly(deg)": -71.2763955271489,
        "RAAN(deg)": 344.9928591646244,
        "Satellite Name": "Test1 1535",
        "Satellite Number": 1535,
        "Semi-Major Axis(m)": 6980739.136638005,
        "Time(s)": 170
    },
    {
        "Altitude(m)": 623274.4602610085,
        "Argument of Periapsis(deg)": 0.001875410264393353,
        "Eccentricity": 0.0,
        "Inclination(deg)": 60.0,
        "Latitude(deg)": -54.96851291985721,
        "Longitude(deg)": -170.72476607040264,
        "Mean Anomaly(deg)": -70.65628938168706,
        "RAAN(deg)": 344.9924391154847,
        "Satellite Name": "Test1 1535",
        "Satellite Number": 1535,
        "Semi-Major Axis(m)": 6980739.136638005,
        "Time(s)": 180
    },
    {
        "Altitude(m)": 623157.6175510762,
        "Argument of Periapsis(deg)": 0.0019795997235263173,
        "Eccentricity": 0.0,
        "Inclination(deg)": 60.0,
        "Latitude(deg)": -54.658129603172945,
        "Longitude(deg)": -169.84188071461804,
        "Mean Anomaly(deg)": -70.03618323622526,
        "RAAN(deg)": 344.99201906634494,
        "Satellite Name": "Test1 1535",
        "Satellite Number": 1535,
        "Semi-Major Axis(m)": 6980739.136638005,
        "Time(s)": 190
    }
]